{
    "links": {
        "self": "http://www.neowsapp.com/rest/v1/neo/3467185?api_key=iIulBulltgU6a56xZRHN4H3l9WmuAYTsLGpBGhQ2"
    },
    "id": "3467185",
    "neo_reference_id": "3467185",
    "name": "(2009 SL)",
    "designation": "2009 SL",
    "nasa_jpl_url": "http://ssd.jpl.nasa.gov/sbdb.cgi?sstr=3467185",
    "absolute_magnitude_h": 26.7,
    "estimated_diameter": {
        "kilometers": {
            "estimated_diameter_min": 0.0121494041,
            "estimated_diameter_max": 0.0271668934
        },
        "meters": {
            "estimated_diameter_min": 12.14940408,
            "estimated_diameter_max": 27.1668934089
        },
        "miles": {
            "estimated_diameter_min": 0.0075492874,
            "estimated_diameter_max": 0.0168807197
        },
        "feet": {
            "estimated_diameter_min": 39.8602508817,
            "estimated_diameter_max": 89.1302305717
        }
    },
    "is_potentially_hazardous_asteroid": false,
    "close_approach_data": [
        {
            "close_approach_date": "1937-09-08",
            "close_approach_date_full": "1937-Sep-08 13:18",
            "epoch_date_close_approach": -1019731320000,
            "relative_velocity": {
                "kilometers_per_second": "14.0402637624",
                "kilometers_per_hour": "50544.9495446605",
                "miles_per_hour": "31406.6660101253"
            },
            "miss_distance": {
                "astronomical": "0.1922641733",
                "lunar": "74.7907634137",
                "kilometers": "28762310.802990871",
                "miles": "17872071.1940251798"
            },
            "orbiting_body": "Earth"
        },
        {
            "close_approach_date": "1938-01-25",
            "close_approach_date_full": "1938-Jan-25 21:52",
            "epoch_date_close_approach": -1007690880000,
            "relative_velocity": {
                "kilometers_per_second": "9.0307133149",
                "kilometers_per_hour": "32510.5679334623",
                "miles_per_hour": "20200.8026139894"
            },
            "miss_distance": {
                "astronomical": "0.4360575315",
                "lunar": "169.6263797535",
                "kilometers": "65233277.909857905",
                "miles": "40534079.302952889"
            },
            "orbiting_body": "Earth"
        },
        {
            "close_approach_date": "2009-09-19",
            "close_approach_date_full": "2009-Sep-19 04:58",
            "epoch_date_close_approach": 1253336280000,
            "relative_velocity": {
                "kilometers_per_second": "11.3600652112",
                "kilometers_per_hour": "40896.2347601972",
                "miles_per_hour": "25411.329870857"
            },
            "miss_distance": {
                "astronomical": "0.0318875562",
                "lunar": "12.4042593618",
                "kilometers": "4770310.487025294",
                "miles": "2964133.4879412972"
            },
            "orbiting_body": "Earth"
        },
        {
            "close_approach_date": "2010-05-23",
            "close_approach_date_full": "2010-May-23 18:37",
            "epoch_date_close_approach": 1274639820000,
            "relative_velocity": {
                "kilometers_per_second": "8.5636772266",
                "kilometers_per_hour": "30829.2380159131",
                "miles_per_hour": "19156.0895882767"
            },
            "miss_distance": {
                "astronomical": "0.0626013545",
                "lunar": "24.3519269005",
                "kilometers": "9365029.292314915",
                "miles": "5819159.364239227"
            },
            "orbiting_body": "Mars"
        },
        {
            "close_approach_date": "2081-10-02",
            "close_approach_date_full": "2081-Oct-02 09:59",
            "epoch_date_close_approach": 3526624740000,
            "relative_velocity": {
                "kilometers_per_second": "11.2687016686",
                "kilometers_per_hour": "40567.3260069942",
                "miles_per_hour": "25206.9587625126"
            },
            "miss_distance": {
                "astronomical": "0.2190068892",
                "lunar": "85.1936798988",
                "kilometers": "32762964.139646004",
                "miles": "20357961.9051386952"
            },
            "orbiting_body": "Earth"
        }
    ],
    "orbital_data": {
        "orbit_id": "6",
        "orbit_determination_date": "2017-04-06 09:00:02",
        "first_observation_date": "2009-09-17",
        "last_observation_date": "2009-09-17",
        "data_arc_in_days": null,
        "observations_used": 19,
        "orbit_uncertainty": "8",
        "minimum_orbit_intersection": ".0318573",
        "jupiter_tisserand_invariant": "4.784",
        "epoch_osculation": "2455092.5",
        "eccentricity": ".2585705901275149",
        "semi_major_axis": "1.34892004045024",
        "inclination": "19.66188227740222",
        "ascending_node_longitude": "174.7391212232519",
        "orbital_period": "572.2393743363284",
        "perihelion_distance": "1.00012898955619",
        "perihelion_argument": "214.8634620834471",
        "aphelion_distance": "1.697711091344289",
        "perihelion_time": "2455124.532308079877",
        "mean_anomaly": "339.848239345414",
        "mean_motion": ".6291073563707857",
        "equinox": "J2000",
        "orbit_class": {
            "orbit_class_type": "APO",
            "orbit_class_description": "Near-Earth asteroid orbits which cross the Earth’s orbit similar to that of 1862 Apollo",
            "orbit_class_range": "a (semi-major axis) > 1.0 AU; q (perihelion) < 1.017 AU"
        }
    },
    "is_sentry_object": false
}